ONEWEB-0228             
1 48780U 21045P   23256.61827434  .00000072  00000+0  15722-3 0  9990
2 48780  87.8939  99.8130 0001838  87.5676 272.5665 13.15552066112980
